start=new Date('2022-06-04T00:00:00.000Z').valueOf();
sats=[{"CLASSIFICATION_TYPE":"U","GP_ID":"205297134","OBJECT_TYPE":"PAYLOAD","CENTER_NAME":"EARTH","DECAY_DATE":null,"SITE":"AFETR","BSTAR":"0.00001347400000","APOAPSIS":"548.454","OBJECT_NAME":"STARLINK-2307","ECCENTRICITY":"0.00017740","EPHEMERIS_TYPE":"0","TIME_SYSTEM":"UTC","ARG_OF_PERICENTER":"55.4724","EPOCH":"2022-06-03T20:20:46.213440","COUNTRY_CODE":"US","MEAN_ANOMALY":"304.6432","INCLINATION":"53.0552","ELEMENT_SET_NO":"999","PERIOD":"95.592","REV_AT_EPOCH":"6853","FILE":"3479630","TLE_LINE1":"1 47990U 21024P   22154.84775710 -.00000081  00000-0  13474-4 0  9994","MEAN_ELEMENT_THEORY":"SGP4","MEAN_MOTION":"15.06396001","SEMIMAJOR_AXIS":"6925.361","MEAN_MOTION_DOT":"-0.00000081","MEAN_MOTION_DDOT":"0.0000000000000","TLE_LINE2":"2 47990  53.0552 298.5142 0001774  55.4724 304.6432 15.06396001 68533","RA_OF_ASC_NODE":"298.5142","OBJECT_ID":"2021-024P","PERIAPSIS":"545.997","LAUNCH_DATE":"2021-03-24","RCS_SIZE":"LARGE","REF_FRAME":"TEME","NORAD_CAT_ID":"47990"},{"RA_OF_ASC_NODE":"313.4878","MEAN_MOTION_DDOT":"0.0000000000000","TLE_LINE2":"2 47991  53.0572 313.4878 0001508  83.4636 276.6525 15.06400874 67856","PERIAPSIS":"546.167","OBJECT_ID":"2021-024Q","MEAN_MOTION":"15.06400874","SEMIMAJOR_AXIS":"6925.346","MEAN_MOTION_DOT":"-0.00001109","NORAD_CAT_ID":"47991","RCS_SIZE":"LARGE","LAUNCH_DATE":"2021-03-24","REF_FRAME":"TEME","OBJECT_NAME":"STARLINK-2279","EPHEMERIS_TYPE":"0","ECCENTRICITY":"0.00015080","DECAY_DATE":null,"BSTAR":"-0.00005553500000","SITE":"AFETR","APOAPSIS":"548.255","ARG_OF_PERICENTER":"83.4636","EPOCH":"2022-06-03T20:37:21.510336","TIME_SYSTEM":"UTC","CENTER_NAME":"EARTH","CLASSIFICATION_TYPE":"U","OBJECT_TYPE":"PAYLOAD","GP_ID":"205271312","REV_AT_EPOCH":"6785","MEAN_ELEMENT_THEORY":"SGP4","FILE":"3479438","TLE_LINE1":"1 47991U 21024Q   22154.85927674 -.00001109  00000-0 -55535-4 0  9991","MEAN_ANOMALY":"276.6525","INCLINATION":"53.0572","COUNTRY_CODE":"US","ELEMENT_SET_NO":"999","PERIOD":"95.592"},{"MEAN_MOTION":"15.06410889","SEMIMAJOR_AXIS":"6925.315","MEAN_MOTION_DOT":"-0.00002445","PERIAPSIS":"545.952","OBJECT_ID":"2021-024R","RA_OF_ASC_NODE":"308.7191","MEAN_MOTION_DDOT":"0.0000000000000","TLE_LINE2":"2 47992  53.0555 308.7191 0001773  55.4051 304.7105 15.06410889 68403","REF_FRAME":"TEME","RCS_SIZE":"LARGE","LAUNCH_DATE":"2021-03-24","NORAD_CAT_ID":"47992","CENTER_NAME":"EARTH","CLASSIFICATION_TYPE":"U","GP_ID":"205298136","OBJECT_TYPE":"PAYLOAD","EPOCH":"2022-06-03T19:19:41.095200","ARG_OF_PERICENTER":"55.4051","TIME_SYSTEM":"UTC","OBJECT_NAME":"STARLINK-2229","EPHEMERIS_TYPE":"0","ECCENTRICITY":"0.00017730","DECAY_DATE":null,"SITE":"AFETR","APOAPSIS":"548.408","BSTAR":"-0.00014523000000","ELEMENT_SET_NO":"999","PERIOD":"95.591","MEAN_ANOMALY":"304.7105","INCLINATION":"53.0555","COUNTRY_CODE":"US","MEAN_ELEMENT_THEORY":"SGP4","TLE_LINE1":"1 47992U 21024R   22154.80533675 -.00002445  00000-0 -14523-3 0  9996","FILE":"3479630","REV_AT_EPOCH":"6840"},{"REV_AT_EPOCH":"6737","MEAN_ELEMENT_THEORY":"SGP4","TLE_LINE1":"1 47993U 21024S   22154.82102051  .00000706  00000-0  66285-4 0  9998","FILE":"3479478","INCLINATION":"53.0564","MEAN_ANOMALY":"285.0742","COUNTRY_CODE":"US","PERIOD":"95.592","ELEMENT_SET_NO":"999","EPHEMERIS_TYPE":"0","ECCENTRICITY":"0.00016740","OBJECT_NAME":"STARLINK-2273","APOAPSIS":"548.349","DECAY_DATE":null,"SITE":"AFETR","BSTAR":"0.00006628500000","ARG_OF_PERICENTER":"75.0432","EPOCH":"2022-06-03T19:42:16.172064","TIME_SYSTEM":"UTC","CENTER_NAME":"EARTH","GP_ID":"205271281","OBJECT_TYPE":"PAYLOAD","CLASSIFICATION_TYPE":"U","NORAD_CAT_ID":"47993","RCS_SIZE":"LARGE","LAUNCH_DATE":"2021-03-24","REF_FRAME":"TEME","RA_OF_ASC_NODE":"348.6573","MEAN_MOTION_DDOT":"0.0000000000000","TLE_LINE2":"2 47993  53.0564 348.6573 0001674  75.0432 285.0742 15.06407728 67373","PERIAPSIS":"546.031","OBJECT_ID":"2021-024S","SEMIMAJOR_AXIS":"6925.325","MEAN_MOTION_DOT":"0.00000706","MEAN_MOTION":"15.06407728"},{"RA_OF_ASC_NODE":"4.2306","TLE_LINE2":"2 47994  53.0556   4.2306 0001555  71.8998 288.2160 15.06400077 67608","MEAN_MOTION_DDOT":"0.0000000000000","PERIAPSIS":"546.136","OBJECT_ID":"2021-024T","MEAN_MOTION":"15.06400077","SEMIMAJOR_AXIS":"6925.348","MEAN_MOTION_DOT":"-0.00000162","NORAD_CAT_ID":"47994","RCS_SIZE":"LARGE","LAUNCH_DATE":"2021-03-24","REF_FRAME":"TEME","ECCENTRICITY":"0.00015550","EPHEMERIS_TYPE":"0","OBJECT_NAME":"STARLINK-2290","DECAY_DATE":null,"APOAPSIS":"548.290","SITE":"AFETR","BSTAR":"0.00000805180000","EPOCH":"2022-06-03T16:37:10.813728","ARG_OF_PERICENTER":"71.8998","TIME_SYSTEM":"UTC","CENTER_NAME":"EARTH","OBJECT_TYPE":"PAYLOAD","GP_ID":"205296635","CLASSIFICATION_TYPE":"U","REV_AT_EPOCH":"6760","MEAN_ELEMENT_THEORY":"SGP4","TLE_LINE1":"1 47994U 21024T   22154.69248627 -.00000162  00000-0  80518-5 0  9997","FILE":"3479630","INCLINATION":"53.0556","MEAN_ANOMALY":"288.2160","COUNTRY_CODE":"US","PERIOD":"95.592","ELEMENT_SET_NO":"999"},{"EPOCH":"2022-06-03T11:45:59.912928","ARG_OF_PERICENTER":"68.8789","TIME_SYSTEM":"UTC","EPHEMERIS_TYPE":"0","ECCENTRICITY":"0.00012510","OBJECT_NAME":"STARLINK-2309","DECAY_DATE":null,"SITE":"AFETR","BSTAR":"0.00002892600000","APOAPSIS":"555.568","CENTER_NAME":"EARTH","OBJECT_TYPE":"PAYLOAD","GP_ID":"205262833","CLASSIFICATION_TYPE":"U","MEAN_ELEMENT_THEORY":"SGP4","FILE":"3479192","TLE_LINE1":"1 47995U 21024U   22154.49027677  .00000129  00000-0  28926-4 0  9992","REV_AT_EPOCH":"6807","PERIOD":"95.747","ELEMENT_SET_NO":"999","INCLINATION":"53.0554","MEAN_ANOMALY":"291.2332","COUNTRY_CODE":"US","PERIAPSIS":"553.833","OBJECT_ID":"2021-024U","RA_OF_ASC_NODE":"330.3251","MEAN_MOTION_DDOT":"0.0000000000000","TLE_LINE2":"2 47995  53.0554 330.3251 0001251  68.8789 291.2332 15.03960555 68072","MEAN_MOTION_DOT":"0.00000129","SEMIMAJOR_AXIS":"6932.835","MEAN_MOTION":"15.03960555","NORAD_CAT_ID":"47995","REF_FRAME":"TEME","RCS_SIZE":"LARGE","LAUNCH_DATE":"2021-03-24"},{"NORAD_CAT_ID":"47996","RCS_SIZE":"LARGE","LAUNCH_DATE":"2021-03-24","REF_FRAME":"TEME","RA_OF_ASC_NODE":"254.1390","TLE_LINE2":"2 47996  53.0514 254.1390 0001432  73.7045 286.4105 15.14744351 68707","MEAN_MOTION_DDOT":"0.0000000000000","PERIAPSIS":"520.769","OBJECT_ID":"2021-024V","SEMIMAJOR_AXIS":"6899.892","MEAN_MOTION_DOT":"-0.00113343","MEAN_MOTION":"15.14744351","REV_AT_EPOCH":"6870","MEAN_ELEMENT_THEORY":"SGP4","TLE_LINE1":"1 47996U 21024V   22154.83483157 -.00113343  00000-0 -61214-2 0  9990","FILE":"3479441","MEAN_ANOMALY":"286.4105","INCLINATION":"53.0514","COUNTRY_CODE":"US","ELEMENT_SET_NO":"999","PERIOD":"95.066","OBJECT_NAME":"STARLINK-2260","EPHEMERIS_TYPE":"0","ECCENTRICITY":"0.00014320","BSTAR":"-0.00612140000000","DECAY_DATE":null,"SITE":"AFETR","APOAPSIS":"522.745","EPOCH":"2022-06-03T20:02:09.447648","ARG_OF_PERICENTER":"73.7045","TIME_SYSTEM":"UTC","CENTER_NAME":"EARTH","CLASSIFICATION_TYPE":"U","OBJECT_TYPE":"PAYLOAD","GP_ID":"205271356"},{"ARG_OF_PERICENTER":"78.4902","EPOCH":"2022-06-03T06:37:23.404512","TIME_SYSTEM":"UTC","ECCENTRICITY":"0.00014990","EPHEMERIS_TYPE":"0","OBJECT_NAME":"STARLINK-2266","SITE":"AFETR","DECAY_DATE":null,"BSTAR":"0.00023080000000","APOAPSIS":"548.211","CENTER_NAME":"EARTH","GP_ID":"205263832","OBJECT_TYPE":"PAYLOAD","CLASSIFICATION_TYPE":"U","MEAN_ELEMENT_THEORY":"SGP4","FILE":"3479192","TLE_LINE1":"1 47997U 21024W   22154.27596533  .00003159  00000-0  23080-3 0  9993","REV_AT_EPOCH":"6760","PERIOD":"95.591","ELEMENT_SET_NO":"999","INCLINATION":"53.0540","MEAN_ANOMALY":"281.6255","COUNTRY_CODE":"US","PERIAPSIS":"546.135","OBJECT_ID":"2021-024W","RA_OF_ASC_NODE":"6.0936","MEAN_MOTION_DDOT":"0.0000000000000","TLE_LINE2":"2 47997  53.0540   6.0936 0001499  78.4902 281.6255 15.06413241 67607","MEAN_MOTION":"15.06413241","SEMIMAJOR_AXIS":"6925.308","MEAN_MOTION_DOT":"0.00003159","NORAD_CAT_ID":"47997","REF_FRAME":"TEME","RCS_SIZE":"LARGE","LAUNCH_DATE":"2021-03-24"},{"INCLINATION":"53.0564","MEAN_ANOMALY":"291.1582","COUNTRY_CODE":"US","PERIOD":"95.747","ELEMENT_SET_NO":"999","REV_AT_EPOCH":"6794","MEAN_ELEMENT_THEORY":"SGP4","TLE_LINE1":"1 47998U 21024X   22154.60079714  .00000204  00000-0  34349-4 0  9997","FILE":"3479630","CENTER_NAME":"EARTH","GP_ID":"205297135","OBJECT_TYPE":"PAYLOAD","CLASSIFICATION_TYPE":"U","ECCENTRICITY":"0.00016450","EPHEMERIS_TYPE":"0","OBJECT_NAME":"STARLINK-2296","DECAY_DATE":null,"BSTAR":"0.00003434900000","SITE":"AFETR","APOAPSIS":"555.842","EPOCH":"2022-06-03T14:25:08.872896","ARG_OF_PERICENTER":"68.9581","TIME_SYSTEM":"UTC","RCS_SIZE":"LARGE","LAUNCH_DATE":"2021-03-24","REF_FRAME":"TEME","NORAD_CAT_ID":"47998","MEAN_MOTION_DOT":"0.00000204","SEMIMAJOR_AXIS":"6932.837","MEAN_MOTION":"15.03960110","RA_OF_ASC_NODE":"339.7210","MEAN_MOTION_DDOT":"0.0000000000000","TLE_LINE2":"2 47998  53.0564 339.7210 0001645  68.9581 291.1582 15.03960110 67940","PERIAPSIS":"553.561","OBJECT_ID":"2021-024X"},{"SEMIMAJOR_AXIS":"6925.399","MEAN_MOTION_DOT":"0.00001416","MEAN_MOTION":"15.06383444","RA_OF_ASC_NODE":"308.6128","TLE_LINE2":"2 47999  53.0540 308.6128 0001600  64.3692 295.7462 15.06383444 68391","MEAN_MOTION_DDOT":"0.0000000000000","PERIAPSIS":"546.156","OBJECT_ID":"2021-024Y","RCS_SIZE":"LARGE","LAUNCH_DATE":"2021-03-24","REF_FRAME":"TEME","NORAD_CAT_ID":"47999","CENTER_NAME":"EARTH","CLASSIFICATION_TYPE":"U","GP_ID":"205297387","OBJECT_TYPE":"PAYLOAD","OBJECT_NAME":"STARLINK-2218","EPHEMERIS_TYPE":"0","ECCENTRICITY":"0.00016000","DECAY_DATE":null,"SITE":"AFETR","APOAPSIS":"548.372","BSTAR":"0.00011397000000","ARG_OF_PERICENTER":"64.3692","EPOCH":"2022-06-03T19:56:51.259776","TIME_SYSTEM":"UTC","MEAN_ANOMALY":"295.7462","INCLINATION":"53.0540","COUNTRY_CODE":"US","ELEMENT_SET_NO":"999","PERIOD":"95.593","REV_AT_EPOCH":"6839","MEAN_ELEMENT_THEORY":"SGP4","TLE_LINE1":"1 47999U 21024Y   22154.83114884  .00001416  00000-0  11397-3 0  9994","FILE":"3479630"}];
